{
"type": "FeatureCollection",
"name": "dated_landslide_events",
"crs": { "type": "name", "properties": { "name": "urn:ogc:def:crs:OGC:1.3:CRS84" } },
"features": [
{ "type": "Feature", "properties": { "record_id": 26348, "landslide_id": "SKM/EAS/78A12/2014/002", "district": "East Sikkim", "location": "6 km from Martam 0.5 km before Sikkim Supreme", "latitude": 27.23772, "longitude": 88.51384, "event_date": "2014-08-26T00:00:00", "precip_mm": 1.4381111, "rain_24h_mm": 57.789557099342346, "rain_72h_mm": 127.02297496795654, "rain_7d_mm": 437.8593562245369, "swvl1": 0.4247284, "swvl2": 0.42790222 }, "geometry": { "type": "Point", "coordinates": [ 88.51384, 27.23772 ] } },
{ "type": "Feature", "properties": { "record_id": 26352, "landslide_id": "SKM/EAS/78A08/2014/003", "district": "East Sikkim", "location": "Sirwani Landslide Sirwani (On Singtam-Mangkha", "latitude": 27.23924, "longitude": 88.48416, "event_date": "2014-08-25T00:00:00", "precip_mm": 1.517564, "rain_24h_mm": 19.218176603317261, "rain_72h_mm": 115.6413073539734, "rain_7d_mm": 419.57324701547623, "swvl1": 0.4306183, "swvl2": 0.42985535 }, "geometry": { "type": "Point", "coordinates": [ 88.48416, 27.23924 ] } },
{ "type": "Feature", "properties": { "record_id": 26361, "landslide_id": "SK/ED/78A12/2017/01", "district": "East Sikkim", "location": "Pachey landslide near Pakyong Town Pakyong-Machong Road near", "latitude": 27.24144, "longitude": 88.60681, "event_date": "2017-07-09T00:00:00", "precip_mm": 0.7353127, "rain_24h_mm": 22.306382685899731, "rain_72h_mm": 71.170404553413391, "rain_7d_mm": 188.05782905220985, "swvl1": 0.42765808, "swvl2": 0.43058777 }, "geometry": { "type": "Point", "coordinates": [ 88.60681, 27.24144 ] } },
{ "type": "Feature", "properties": { "record_id": 26401, "landslide_id": "SKM/EAS/78A11/2014/001", "district": "East Sikkim", "location": "Mangthang Landslide Mangthang (On Dhajey-", "latitude": 27.25677, "longitude": 88.55359, "event_date": "2014-08-16T00:00:00", "precip_mm": 0.20506978, "rain_24h_mm": 18.437480539083481, "rain_72h_mm": 112.06067153811456, "rain_7d_mm": 269.36314472556114, "swvl1": 0.4240265, "swvl2": 0.4257202 }, "geometry": { "type": "Point", "coordinates": [ 88.55359, 27.25677 ] } },
{ "type": "Feature", "properties": { "record_id": 26469, "landslide_id": "SK/EAS/78A11/2014/01", "district": "East Sikkim", "location": "Dhankutey dhara Slide 3km away from Rumtek on", "latitude": 27.28408, "longitude": 88.54611, "event_date": "2013-08-28T00:00:00", "precip_mm": 3.3722668, "rain_24h_mm": 44.116873204708099, "rain_72h_mm": 104.20154003798962, "rain_7d_mm": 198.33453832566735, "swvl1": 0.42915344, "swvl2": 0.4278717 }, "geometry": { "type": "Point", "coordinates": [ 88.54611, 27.28408 ] } },
{ "type": "Feature", "properties": { "record_id": 26512, "landslide_id": "SK/WES/78A03/2014/02", "district": "West Sikkim", "location": "Tamabung slide Tamabung (On Dharap-Nambu", "latitude": 27.31892, "longitude": 88.16222, "event_date": "2013-09-01T00:00:00", "precip_mm": 0.6932318, "rain_24h_mm": 22.389227688312531, "rain_72h_mm": 75.405892059206963, "rain_7d_mm": 211.47886285185811, "swvl1": 0.42893982, "swvl2": 0.4287262 }, "geometry": { "type": "Point", "coordinates": [ 88.16222, 27.31892 ] } },
{ "type": "Feature", "properties": { "record_id": 26607, "landslide_id": "SKM/NOR/78A11/2014/007", "district": "North Sikkim", "location": "Tanek Rockslide Tanek (On North-Sikkim High", "latitude": 27.4097, "longitude": 88.54371, "event_date": "2014-06-24T00:00:00", "precip_mm": 2.5732517, "rain_24h_mm": 52.64040869474411, "rain_72h_mm": 174.87164551019669, "rain_7d_mm": 224.45363694056869, "swvl1": 0.42955017, "swvl2": 0.42933655 }, "geometry": { "type": "Point", "coordinates": [ 88.54371, 27.4097 ] } },
{ "type": "Feature", "properties": { "record_id": 26642, "landslide_id": "SKM/NOR/78A11/2014/006", "district": "North Sikkim", "location": "Ambithang Landslide Ambithang (On Rangrang-", "latitude": 27.48603, "longitude": 88.53269, "event_date": "2014-07-08T00:00:00", "precip_mm": 1.2973994, "rain_24h_mm": 33.256191611289978, "rain_72h_mm": 93.101626336574554, "rain_7d_mm": 160.74404963105917, "swvl1": 0.42842102, "swvl2": 0.42834473 }, "geometry": { "type": "Point", "coordinates": [ 88.53269, 27.48603 ] } },
{ "type": "Feature", "properties": { "record_id": 26644, "landslide_id": "SKM/NOR/78A10/2014/004", "district": "North Sikkim", "location": "Pakshek Landslide Pakshek ( Mangan-Chungthang", "latitude": 27.5091, "longitude": 88.53848, "event_date": "2014-07-01T00:00:00", "precip_mm": 0.19931793, "rain_24h_mm": 77.54557603597641, "rain_72h_mm": 220.15829592943192, "rain_7d_mm": 457.79212731122971, "swvl1": 0.4249115, "swvl2": 0.42730713 }, "geometry": { "type": "Point", "coordinates": [ 88.53848, 27.5091 ] } },
{ "type": "Feature", "properties": { "record_id": 26646, "landslide_id": "SKM/NOR/78A10/2014/005", "district": "North Sikkim", "location": "Lanthakhola Lanthakhola (On Mangan to", "latitude": 27.5152, "longitude": 88.56456, "event_date": "2014-07-08T00:00:00", "precip_mm": 1.2973994, "rain_24h_mm": 33.256191611289978, "rain_72h_mm": 93.101626336574554, "rain_7d_mm": 160.74404963105917, "swvl1": 0.42842102, "swvl2": 0.42834473 }, "geometry": { "type": "Point", "coordinates": [ 88.56456, 27.5152 ] } },
{ "type": "Feature", "properties": { "record_id": 26659, "landslide_id": "SK/ED/78A6/2016/01", "district": "North Sikkim", "location": "Dzongu landslide Left bank slope of Talong Chu", "latitude": 27.535333, "longitude": 88.497972, "event_date": "2016-08-13T00:00:00", "precip_mm": 0.010281801, "rain_24h_mm": 14.674647778272629, "rain_72h_mm": 54.699381053447723, "rain_7d_mm": 137.00540613010526, "swvl1": 0.42211914, "swvl2": 0.4265747 }, "geometry": { "type": "Point", "coordinates": [ 88.497972, 27.535333 ] } },
{ "type": "Feature", "properties": { "record_id": 26712, "landslide_id": "SKM/EAST/78A12/2015/002", "district": "East Sikkim", "location": "Kumrek landslide Kumrek (On Rangpo-Kumrek", "latitude": 27.179, "longitude": 88.53313889, "event_date": "2015-07-08T00:00:00", "precip_mm": 0.20095706, "rain_24h_mm": 11.3995551019907, "rain_72h_mm": 126.872565433383, "rain_7d_mm": 337.33064728975296, "swvl1": 0.4240265, "swvl2": 0.42507935 }, "geometry": { "type": "Point", "coordinates": [ 88.53313889, 27.179 ] } },
{ "type": "Feature", "properties": { "record_id": 26713, "landslide_id": "SKM/NORTH/78A11/2015/003", "district": "North Sikkim", "location": "Rangrang Landslide Rangrang (On Mangan to", "latitude": 27.46166, "longitude": 88.52341, "event_date": "2015-06-01T00:00:00", "precip_mm": 3.2436252, "rain_24h_mm": 47.483161330223083, "rain_72h_mm": 110.29784014821053, "rain_7d_mm": 150.939851552248, "swvl1": 0.43040466, "swvl2": 0.42919922 }, "geometry": { "type": "Point", "coordinates": [ 88.52341, 27.46166 ] } },
{ "type": "Feature", "properties": { "record_id": 26714, "landslide_id": "SKM/EAST/78A11/2015/004", "district": "East Sikkim", "location": "Tumin Landslide Tumin", "latitude": 27.33208, "longitude": 88.50902, "event_date": "2015-07-11T00:00:00", "precip_mm": 0.8646995, "rain_24h_mm": 49.8924480676651, "rain_72h_mm": 96.933233469724655, "rain_7d_mm": 292.02103497087955, "swvl1": 0.42808533, "swvl2": 0.4289856 }, "geometry": { "type": "Point", "coordinates": [ 88.50902, 27.33208 ] } },
{ "type": "Feature", "properties": { "record_id": 26816, "landslide_id": "SKM-01/2012-13", "district": "East Sikkim", "location": "Saketang Rongli-Rolep road", "latitude": 27.26063889, "longitude": 88.71438889, "event_date": "2012-06-07T00:00:00", "precip_mm": 0.6183684, "rain_24h_mm": 8.6078643798828125, "rain_72h_mm": 34.259027920663357, "rain_7d_mm": 84.443009831011295, "swvl1": 0.42617798, "swvl2": 0.42425537 }, "geometry": { "type": "Point", "coordinates": [ 88.71438889, 27.26063889 ] } },
{ "type": "Feature", "properties": { "record_id": 26817, "landslide_id": "SKM-02/2012-13", "district": "East Sikkim", "location": "Chopse Slide Rongli-Rolep road", "latitude": 27.26616667, "longitude": 88.72697222, "event_date": "2012-06-07T00:00:00", "precip_mm": 0.6183684, "rain_24h_mm": 8.6078643798828125, "rain_72h_mm": 34.259027920663357, "rain_7d_mm": 84.443009831011295, "swvl1": 0.42617798, "swvl2": 0.42425537 }, "geometry": { "type": "Point", "coordinates": [ 88.72697222, 27.26616667 ] } },
{ "type": "Feature", "properties": { "record_id": 26818, "landslide_id": "SKM-03/2012-13", "district": "East Sikkim", "location": "Dharakham Slide Rongli-Rolep road", "latitude": 27.26544444, "longitude": 88.72252778, "event_date": "2012-06-07T00:00:00", "precip_mm": 0.6183684, "rain_24h_mm": 8.6078643798828125, "rain_72h_mm": 34.259027920663357, "rain_7d_mm": 84.443009831011295, "swvl1": 0.42617798, "swvl2": 0.42425537 }, "geometry": { "type": "Point", "coordinates": [ 88.72252778, 27.26544444 ] } },
{ "type": "Feature", "properties": { "record_id": 26819, "landslide_id": "SKM-04/2012-13", "district": "East Sikkim", "location": "Rockse Slide 1 Panthang to Dikchu road", "latitude": 27.37441667, "longitude": 88.54505556, "event_date": "2012-07-13T00:00:00", "precip_mm": 3.8871467, "rain_24h_mm": 56.820422485470772, "rain_72h_mm": 170.03864367306232, "rain_7d_mm": 269.77390139549971, "swvl1": 0.42744446, "swvl2": 0.43025208 }, "geometry": { "type": "Point", "coordinates": [ 88.54505556, 27.37441667 ] } },
{ "type": "Feature", "properties": { "record_id": 26820, "landslide_id": "SKM-05/2012-13", "district": "East Sikkim", "location": "Rockse Slide 2 Panthang to Dikchu road", "latitude": 27.36977778, "longitude": 88.54466667, "event_date": "2012-07-13T00:00:00", "precip_mm": 3.8871467, "rain_24h_mm": 56.820422485470772, "rain_72h_mm": 170.03864367306232, "rain_7d_mm": 269.77390139549971, "swvl1": 0.42744446, "swvl2": 0.43025208 }, "geometry": { "type": "Point", "coordinates": [ 88.54466667, 27.36977778 ] } },
{ "type": "Feature", "properties": { "record_id": 26821, "landslide_id": "SKM-06/2012-13", "district": "North Sikkim", "location": "Pegong Slide Mangan-Chungthang road", "latitude": 27.59027778, "longitude": 88.65394444, "event_date": "2012-06-26T00:00:00", "precip_mm": 2.8019621, "rain_24h_mm": 78.922681331634521, "rain_72h_mm": 154.6513623893261, "rain_7d_mm": 288.16644187271595, "swvl1": 0.42721558, "swvl2": 0.4298401 }, "geometry": { "type": "Point", "coordinates": [ 88.65394444, 27.59027778 ] } },
{ "type": "Feature", "properties": { "record_id": 26822, "landslide_id": "SKM-07/2012-13", "district": "North Sikkim", "location": "Theng Slide On Mangan-Chungthang road", "latitude": 27.57502778, "longitude": 88.65402778000001, "event_date": "2012-06-22T00:00:00", "precip_mm": 2.9512346, "rain_24h_mm": 22.721696764230728, "rain_72h_mm": 65.305564507842064, "rain_7d_mm": 244.90897570550439, "swvl1": 0.43099976, "swvl2": 0.43014526 }, "geometry": { "type": "Point", "coordinates": [ 88.65402778, 27.57502778 ] } },
{ "type": "Feature", "properties": { "record_id": 26823, "landslide_id": "SKM-08/2012-13", "district": "North Sikkim", "location": "Tung Slide On Mangan-Chungthang road", "latitude": 27.56111111, "longitude": 88.65452778, "event_date": "2012-06-22T00:00:00", "precip_mm": 2.9512346, "rain_24h_mm": 22.721696764230728, "rain_72h_mm": 65.305564507842064, "rain_7d_mm": 244.90897570550439, "swvl1": 0.43099976, "swvl2": 0.43014526 }, "geometry": { "type": "Point", "coordinates": [ 88.65452778, 27.56111111 ] } },
{ "type": "Feature", "properties": { "record_id": 26824, "landslide_id": "SKM-09/2012-13", "district": "North Sikkim", "location": "Rubom Slide On Mangan-Chungthang", "latitude": 27.52838889, "longitude": 88.59972222, "event_date": "2012-06-22T00:00:00", "precip_mm": 2.9512346, "rain_24h_mm": 22.721696764230728, "rain_72h_mm": 65.305564507842064, "rain_7d_mm": 244.90897570550439, "swvl1": 0.43099976, "swvl2": 0.43014526 }, "geometry": { "type": "Point", "coordinates": [ 88.59972222, 27.52838889 ] } },
{ "type": "Feature", "properties": { "record_id": 26825, "landslide_id": "SKM-10/2012-13", "district": "North Sikkim", "location": "Singik Slide On Mangan-Chungthang road", "latitude": 27.56941667, "longitude": 88.65272222, "event_date": "2012-06-22T00:00:00", "precip_mm": 2.9512346, "rain_24h_mm": 22.721696764230728, "rain_72h_mm": 65.305564507842064, "rain_7d_mm": 244.90897570550439, "swvl1": 0.43099976, "swvl2": 0.43014526 }, "geometry": { "type": "Point", "coordinates": [ 88.65272222, 27.56941667 ] } },
{ "type": "Feature", "properties": { "record_id": 26826, "landslide_id": "SKM-11/2012-13", "district": "North Sikkim", "location": "Deodara Slide On Mangan-Chungthang", "latitude": 27.51491667, "longitude": 88.56313889, "event_date": "2012-07-17T00:00:00", "precip_mm": 0.20352006, "rain_24h_mm": 16.687268376350403, "rain_72h_mm": 177.5214250087738, "rain_7d_mm": 384.40462775528431, "swvl1": 0.42485046, "swvl2": 0.42710876 }, "geometry": { "type": "Point", "coordinates": [ 88.56313889, 27.51491667 ] } },
{ "type": "Feature", "properties": { "record_id": 26827, "landslide_id": "SKM/78A11/2009", "district": "North Sikkim", "location": "Chandera village/Singhik Village", "latitude": 27.51444444, "longitude": 88.56777778, "event_date": "2009-05-09T00:00:00", "precip_mm": 0.17496943, "rain_24h_mm": 11.728584766387939, "rain_72h_mm": 36.584281500428922, "rain_7d_mm": 76.407049138098955, "swvl1": 0.42074585, "swvl2": 0.42163086 }, "geometry": { "type": "Point", "coordinates": [ 88.56777778, 27.51444444 ] } }
]
}
